[{"OBJECT_NAME":"CSC-2","OBJECT_ID":"2023-155F","EPOCH":"2026-03-09T18:52:09.760512","MEAN_MOTION":15.19850023,"ECCENTRICITY":0.00046278,"INCLINATION":97.5491,"RA_OF_ASC_NODE":145.3107,"ARG_OF_PERICENTER":207.4869,"MEAN_ANOMALY":152.6121,"EPHEMERIS_TYPE":0,"CLASSIFICATION_TYPE":"U","NORAD_CAT_ID":58021,"ELEMENT_SET_NO":999,"REV_AT_EPOCH":13307,"BSTAR":0.00057636631,"MEAN_MOTION_DOT":0.00012305,"MEAN_MOTION_DDOT":0},{"OBJECT_NAME":"SKYBEE-A02","OBJECT_ID":"2025-135S","EPOCH":"2026-03-09T21:58:43.816224","MEAN_MOTION":15.19505176,"ECCENTRICITY":0.00031028,"INCLINATION":97.4603,"RA_OF_ASC_NODE":184.7908,"ARG_OF_PERICENTER":118.2708,"MEAN_ANOMALY":241.884,"EPHEMERIS_TYPE":0,"CLASSIFICATION_TYPE":"U","NORAD_CAT_ID":64544,"ELEMENT_SET_NO":999,"REV_AT_EPOCH":3975,"BSTAR":0.00020650672,"MEAN_MOTION_DOT":4.316e-5,"MEAN_MOTION_DDOT":0}]
